0 ICO F2
1 26857U 01026A   13287.75899323 -.00000033  00000-0  00000+0 0  1194
2 26857 044.8330 230.9949 0016089 348.8806 011.0920 03.92443268179594
0 ICO F2
1 26857U 01026A   13293.75073641 -.00000022  00000-0  00000+0 0  1208
2 26857 044.8308 229.6148 0016314 353.2106 193.3436 03.92443333179835
